[{"OBJECT_NAME":"STARLINK-2050","OBJECT_ID":"2021-005J","EPOCH":"2025-11-15T16:49:45.624000","MEAN_MOTION":15.0641371,"ECCENTRICITY":0.0001388,"INCLINATION":53.0533,"RA_OF_ASC_NODE":213.7574,"ARG_OF_PERICENTER":94.9427,"MEAN_ANOMALY":265.172,"EPHEMERIS_TYPE":0,"CLASSIFICATION_TYPE":"U","NORAD_CAT_ID":47357,"ELEMENT_SET_NO":999,"REV_AT_EPOCH":26585,"BSTAR":0.0011262,"MEAN_MOTION_DOT":0.0001654,"MEAN_MOTION_DDOT":0},{"OBJECT_NAME":"STARLINK-2055","OBJECT_ID":"2021-005K","EPOCH":"2025-11-15T14:18:20.166336","MEAN_MOTION":15.06410557,"ECCENTRICITY":0.0001727,"INCLINATION":53.0538,"RA_OF_ASC_NODE":183.7945,"ARG_OF_PERICENTER":87.2866,"MEAN_ANOMALY":272.8321,"EPHEMERIS_TYPE":0,"CLASSIFICATION_TYPE":"U","NORAD_CAT_ID":47358,"ELEMENT_SET_NO":999,"REV_AT_EPOCH":26626,"BSTAR":0.00021664,"MEAN_MOTION_DOT":2.948e-5,"MEAN_MOTION_DDOT":0},{"OBJECT_NAME":"STARLINK-2069","OBJECT_ID":"2021-005L","EPOCH":"2025-11-15T22:00:03.998880","MEAN_MOTION":15.70468475,"ECCENTRICITY":0.0003439,"INCLINATION":53.0115,"RA_OF_ASC_NODE":116.1375,"ARG_OF_PERICENTER":261.5186,"MEAN_ANOMALY":262.8342,"EPHEMERIS_TYPE":0,"CLASSIFICATION_TYPE":"U","NORAD_CAT_ID":47359,"ELEMENT_SET_NO":999,"REV_AT_EPOCH":569,"BSTAR":0.002158,"MEAN_MOTION_DOT":0.00278527,"MEAN_MOTION_DDOT":0},{"OBJECT_NAME":"STARLINK-2071","OBJECT_ID":"2021-005N","EPOCH":"2025-11-15T08:08:10.987584","MEAN_MOTION":15.06409988,"ECCENTRICITY":0.0001589,"INCLINATION":53.0516,"RA_OF_ASC_NODE":184.9573,"ARG_OF_PERICENTER":92.9639,"MEAN_ANOMALY":267.1531,"EPHEMERIS_TYPE":0,"CLASSIFICATION_TYPE":"U","NORAD_CAT_ID":47361,"ELEMENT_SET_NO":999,"REV_AT_EPOCH":26622,"BSTAR":5.4909e-5,"MEAN_MOTION_DOT":5.37e-6,"MEAN_MOTION_DDOT":0},{"OBJECT_NAME":"STARLINK-2076","OBJECT_ID":"2021-005P","EPOCH":"2025-11-15T17:10:54.941088","MEAN_MOTION":15.06436689,"ECCENTRICITY":0.000191,"INCLINATION":53.0518,"RA_OF_ASC_NODE":213.2653,"ARG_OF_PERICENTER":115.4188,"MEAN_ANOMALY":244.6999,"EPHEMERIS_TYPE":0,"CLASSIFICATION_TYPE":"U","NORAD_CAT_ID":47362,"ELEMENT_SET_NO":999,"REV_AT_EPOCH":26586,"BSTAR":0.0022209,"MEAN_MOTION_DOT":0.00032987,"MEAN_MOTION_DDOT":0},{"OBJECT_NAME":"STARLINK-2081","OBJECT_ID":"2021-005T","EPOCH":"2025-11-15T09:55:40.368288","MEAN_MOTION":15.06405824,"ECCENTRICITY":0.0001009,"INCLINATION":53.052,"RA_OF_ASC_NODE":214.6214,"ARG_OF_PERICENTER":78.7829,"MEAN_ANOMALY":281.3274,"EPHEMERIS_TYPE":0,"CLASSIFICATION_TYPE":"U","NORAD_CAT_ID":47366,"ELEMENT_SET_NO":999,"REV_AT_EPOCH":26581,"BSTAR":0.00051928,"MEAN_MOTION_DOT":7.463e-5,"MEAN_MOTION_DDOT":0},{"OBJECT_NAME":"STARLINK-2082","OBJECT_ID":"2021-005U","EPOCH":"2025-11-15T10:32:49.979040","MEAN_MOTION":15.06419831,"ECCENTRICITY":0.0001448,"INCLINATION":53.0532,"RA_OF_ASC_NODE":214.5076,"ARG_OF_PERICENTER":83.6497,"MEAN_ANOMALY":276.4657,"EPHEMERIS_TYPE":0,"CLASSIFICATION_TYPE":"U","NORAD_CAT_ID":47367,"ELEMENT_SET_NO":999,"REV_AT_EPOCH":26582,"BSTAR":0.0011145,"MEAN_MOTION_DOT":0.00016366,"MEAN_MOTION_DDOT":0},{"OBJECT_NAME":"STARLINK-2084","OBJECT_ID":"2021-005V","EPOCH":"2025-11-15T16:44:22.769664","MEAN_MOTION":15.0639423,"ECCENTRICITY":0.000172,"INCLINATION":53.0555,"RA_OF_ASC_NODE":213.3502,"ARG_OF_PERICENTER":86.0682,"MEAN_ANOMALY":274.0503,"EPHEMERIS_TYPE":0,"CLASSIFICATION_TYPE":"U","NORAD_CAT_ID":47368,"ELEMENT_SET_NO":999,"REV_AT_EPOCH":26586,"BSTAR":0.0007062,"MEAN_MOTION_DOT":0.00010251,"MEAN_MOTION_DDOT":0},{"OBJECT_NAME":"STARLINK-2086","OBJECT_ID":"2021-005X","EPOCH":"2025-11-15T22:00:03.998880","MEAN_MOTION":15.63590825,"ECCENTRICITY":0.0013157,"INCLINATION":53.0492,"RA_OF_ASC_NODE":138.7574,"ARG_OF_PERICENTER":130.7914,"MEAN_ANOMALY":17.6894,"EPHEMERIS_TYPE":0,"CLASSIFICATION_TYPE":"U","NORAD_CAT_ID":47370,"ELEMENT_SET_NO":999,"REV_AT_EPOCH":583,"BSTAR":0.0015963,"MEAN_MOTION_DOT":0.00153982,"MEAN_MOTION_DDOT":0},{"OBJECT_NAME":"STARLINK-2088","OBJECT_ID":"2021-005Y","EPOCH":"2025-11-15T17:05:34.512864","MEAN_MOTION":15.06405887,"ECCENTRICITY":0.000163,"INCLINATION":53.0544,"RA_OF_ASC_NODE":213.282,"ARG_OF_PERICENTER":98.4752,"MEAN_ANOMALY":261.6421,"EPHEMERIS_TYPE":0,"CLASSIFICATION_TYPE":"U","NORAD_CAT_ID":47371,"ELEMENT_SET_NO":999,"REV_AT_EPOCH":26586,"BSTAR":-0.00028818,"MEAN_MOTION_DOT":-4.572e-5,"MEAN_MOTION_DDOT":0},{"OBJECT_NAME":"STARLINK-2092","OBJECT_ID":"2021-005AA","EPOCH":"2025-11-15T17:00:18.077184","MEAN_MOTION":15.06373841,"ECCENTRICITY":0.0001457,"INCLINATION":53.0536,"RA_OF_ASC_NODE":213.301,"ARG_OF_PERICENTER":93.7979,"MEAN_ANOMALY":266.3177,"EPHEMERIS_TYPE":0,"CLASSIFICATION_TYPE":"U","NORAD_CAT_ID":47373,"ELEMENT_SET_NO":999,"REV_AT_EPOCH":26586,"BSTAR":0.00074001,"MEAN_MOTION_DOT":0.0001075,"MEAN_MOTION_DDOT":0},{"OBJECT_NAME":"STARLINK-2093","OBJECT_ID":"2021-005AB","EPOCH":"2025-11-15T17:26:49.819200","MEAN_MOTION":15.06421402,"ECCENTRICITY":0.0001673,"INCLINATION":53.0555,"RA_OF_ASC_NODE":213.1876,"ARG_OF_PERICENTER":94.6738,"MEAN_ANOMALY":265.4442,"EPHEMERIS_TYPE":0,"CLASSIFICATION_TYPE":"U","NORAD_CAT_ID":47374,"ELEMENT_SET_NO":999,"REV_AT_EPOCH":26586,"BSTAR":0.001122,"MEAN_MOTION_DOT":0.00016479,"MEAN_MOTION_DDOT":0},{"OBJECT_NAME":"STARLINK-2094","OBJECT_ID":"2021-005AC","EPOCH":"2025-11-15T17:37:26.340096","MEAN_MOTION":15.06413515,"ECCENTRICITY":0.0001304,"INCLINATION":53.0562,"RA_OF_ASC_NODE":213.1817,"ARG_OF_PERICENTER":84.0934,"MEAN_ANOMALY":276.0203,"EPHEMERIS_TYPE":0,"CLASSIFICATION_TYPE":"U","NORAD_CAT_ID":47375,"ELEMENT_SET_NO":999,"REV_AT_EPOCH":26586,"BSTAR":0.0004511,"MEAN_MOTION_DOT":6.446e-5,"MEAN_MOTION_DDOT":0},{"OBJECT_NAME":"STARLINK-2096","OBJECT_ID":"2021-005AD","EPOCH":"2025-11-15T17:42:45.113760","MEAN_MOTION":15.06429635,"ECCENTRICITY":0.0001564,"INCLINATION":53.0544,"RA_OF_ASC_NODE":213.1705,"ARG_OF_PERICENTER":91.2144,"MEAN_ANOMALY":268.9024,"EPHEMERIS_TYPE":0,"CLASSIFICATION_TYPE":"U","NORAD_CAT_ID":47376,"ELEMENT_SET_NO":999,"REV_AT_EPOCH":26586,"BSTAR":0.0011493,"MEAN_MOTION_DOT":0.00016892,"MEAN_MOTION_DDOT":0},{"OBJECT_NAME":"STARLINK-2097","OBJECT_ID":"2021-005AE","EPOCH":"2025-11-15T17:21:32.020992","MEAN_MOTION":15.06395704,"ECCENTRICITY":0.0002018,"INCLINATION":53.0544,"RA_OF_ASC_NODE":213.2365,"ARG_OF_PERICENTER":90.9823,"MEAN_ANOMALY":269.1397,"EPHEMERIS_TYPE":0,"CLASSIFICATION_TYPE":"U","NORAD_CAT_ID":47377,"ELEMENT_SET_NO":999,"REV_AT_EPOCH":26586,"BSTAR":0.0014033,"MEAN_MOTION_DOT":0.00020679,"MEAN_MOTION_DDOT":0},{"OBJECT_NAME":"STARLINK-2098","OBJECT_ID":"2021-005AF","EPOCH":"2025-11-14T20:28:54.319008","MEAN_MOTION":15.06384184,"ECCENTRICITY":0.0001287,"INCLINATION":53.0522,"RA_OF_ASC_NODE":177.1406,"ARG_OF_PERICENTER":97.7991,"MEAN_ANOMALY":262.3144,"EPHEMERIS_TYPE":0,"CLASSIFICATION_TYPE":"U","NORAD_CAT_ID":47378,"ELEMENT_SET_NO":999,"REV_AT_EPOCH":26629,"BSTAR":4.4072e-5,"MEAN_MOTION_DOT":3.75e-6,"MEAN_MOTION_DDOT":0},{"OBJECT_NAME":"STARLINK-2099","OBJECT_ID":"2021-005AG","EPOCH":"2025-11-15T07:46:56.127072","MEAN_MOTION":15.06393312,"ECCENTRICITY":0.0001484,"INCLINATION":53.0529,"RA_OF_ASC_NODE":175.0162,"ARG_OF_PERICENTER":90.3705,"MEAN_ANOMALY":269.7454,"EPHEMERIS_TYPE":0,"CLASSIFICATION_TYPE":"U","NORAD_CAT_ID":47379,"ELEMENT_SET_NO":999,"REV_AT_EPOCH":26636,"BSTAR":0.00036368,"MEAN_MOTION_DOT":5.139e-5,"MEAN_MOTION_DDOT":0}]
