STARLINK-2050           
1 47357U 21005J   25319.70122250  .00016540  00000+0  11262-2 0  9992
2 47357  53.0533 213.7574 0001388  94.9427 265.1720 15.06413710265858
STARLINK-2055           
1 47358U 21005K   25319.59606674  .00002948  00000+0  21664-3 0  9992
2 47358  53.0538 183.7945 0001727  87.2866 272.8321 15.06410557266265
STARLINK-2069           
1 47359U 21005L   25319.91671295  .00278527  00000+0  21580-2 0  9994
2 47359  53.0115 116.1375 0003439 261.5186 262.8342 15.70468475  5691
STARLINK-2071           
1 47361U 21005N   25319.33901606  .00000537  00000+0  54909-4 0  9992
2 47361  53.0516 184.9573 0001589  92.9639 267.1531 15.06409988266224
STARLINK-2076           
1 47362U 21005P   25319.71591367  .00032987  00000+0  22209-2 0  9994
2 47362  53.0518 213.2653 0001910 115.4188 244.6999 15.06436689265865
STARLINK-2081           
1 47366U 21005T   25319.41366167  .00007463  00000+0  51928-3 0  9995
2 47366  53.0520 214.6214 0001009  78.7829 281.3274 15.06405824265818
STARLINK-2082           
1 47367U 21005U   25319.43946735  .00016366  00000+0  11145-2 0  9991
2 47367  53.0532 214.5076 0001448  83.6497 276.4657 15.06419831265824
STARLINK-2084           
1 47368U 21005V   25319.69748576  .00010251  00000+0  70620-3 0  9994
2 47368  53.0555 213.3502 0001720  86.0682 274.0503 15.06394230265860
STARLINK-2086           
1 47370U 21005X   25319.91671295  .00153982  00000+0  15963-2 0  9992
2 47370  53.0492 138.7574 0013157 130.7914  17.6894 15.63590825  5838
STARLINK-2088           
1 47371U 21005Y   25319.71220501 -.00004572  00000+0 -28818-3 0  9997
2 47371  53.0544 213.2820 0001630  98.4752 261.6421 15.06405887265861
STARLINK-2092           
1 47373U 21005AA  25319.70854256  .00010750  00000+0  74001-3 0  9996
2 47373  53.0536 213.3010 0001457  93.7979 266.3177 15.06373841265866
STARLINK-2093           
1 47374U 21005AB  25319.72696550  .00016479  00000+0  11220-2 0  9997
2 47374  53.0555 213.1876 0001673  94.6738 265.4442 15.06421402265861
STARLINK-2094           
1 47375U 21005AC  25319.73433264  .00006446  00000+0  45110-3 0  9999
2 47375  53.0562 213.1817 0001304  84.0934 276.0203 15.06413515265866
STARLINK-2096           
1 47376U 21005AD  25319.73802215  .00016892  00000+0  11493-2 0  9998
2 47376  53.0544 213.1705 0001564  91.2144 268.9024 15.06429635265865
STARLINK-2097           
1 47377U 21005AE  25319.72328728  .00020679  00000+0  14033-2 0  9991
2 47377  53.0544 213.2365 0002018  90.9823 269.1397 15.06395704265869
STARLINK-2098           
1 47378U 21005AF  25318.85340647  .00000375  00000+0  44072-4 0  9998
2 47378  53.0522 177.1406 0001287  97.7991 262.3144 15.06384184266291
STARLINK-2099           
1 47379U 21005AG  25319.32426073  .00005139  00000+0  36368-3 0  9991
2 47379  53.0529 175.0162 0001484  90.3705 269.7454 15.06393312266362
